OBJECT_NAME,OBJECT_ID,EPOCH,MEAN_MOTION,ECCENTRICITY,INCLINATION,RA_OF_ASC_NODE,ARG_OF_PERICENTER,MEAN_ANOMALY,EPHEMERIS_TYPE,CLASSIFICATION_TYPE,NORAD_CAT_ID,ELEMENT_SET_NO,REV_AT_EPOCH,BSTAR,MEAN_MOTION_DOT,MEAN_MOTION_DDOT
STARLINK-6267,2023-061AC,2026-06-13T20:39:27.521280,15.27575625,.00011742,43.0043,3.8403,266.4763,93.5954,0,U,56400,999,17158,.1930571E-5,-.209E-5,0
STARLINK-6287,2023-061AG,2026-06-13T07:03:29.935008,15.27580236,.00012652,43.0020,7.3166,260.0142,100.0567,0,U,56404,999,17149,.2761863E-5,-.186E-5,0
STARLINK-6285,2023-061AH,2026-06-13T06:35:44.802240,15.27578819,.00011759,43.0064,7.1792,268.7702,91.3015,0,U,56405,999,17149,.14461936E-4,.136E-5,0
STARLINK-6283,2023-061AJ,2026-06-13T19:57:06.808320,15.27577863,.00012229,43.0028,4.4651,245.9292,114.1432,0,U,56406,999,17157,.17235617E-4,.212E-5,0
STARLINK-6282,2023-061AK,2026-06-13T06:57:57.251808,15.27579863,.0001324,43.0085,7.2957,280.1702,79.9000,0,U,56407,999,17149,.23735416E-4,.391E-5,0
STARLINK-6289,2023-061AL,2026-06-13T20:13:33.605184,15.27571158,.00012989,43.0043,3.6860,265.9488,94.1215,0,U,56408,999,17158,-.15450256E-4,-.687E-5,0
STARLINK-6241,2023-061AM,2026-06-13T19:40:27.576768,15.27580002,.00017231,43.0067,4.3877,277.6555,82.4101,0,U,56409,999,17157,.26986133E-4,.48E-5,0
STARLINK-6281,2023-061AN,2026-06-13T20:04:18.468768,15.27573415,.00011524,43.0037,3.6503,268.8303,91.2417,0,U,56410,999,17158,-.7951267E-5,-.481E-5,0
STARLINK-6279,2023-061AP,2026-06-13T19:46:00.383520,15.27577167,.00019467,43.0068,4.4129,273.0900,86.9729,0,U,56411,999,17157,.17877034E-4,.229E-5,0
STARLINK-6278,2023-061AQ,2026-06-13T20:24:39.436416,15.27578355,.00011929,43.0069,3.7566,257.8012,102.2706,0,U,56412,999,17158,-.31199067E-4,-.112E-4,0
STARLINK-6258,2023-061AR,2026-06-13T20:02:38.635296,15.27588371,.00015585,43.0053,4.4973,262.8920,97.1754,0,U,56413,999,17157,.59745833E-4,.1383E-4,0
STARLINK-5136,2023-061AS,2026-06-13T06:48:42.114528,15.27575827,.00015731,43.0062,7.2387,279.6407,80.4267,0,U,56414,999,17149,.7038005E-5,-.69E-6,0
STARLINK-6260,2023-061AU,2026-06-11T07:17:36.940128,15.27581791,.0001089,43.0035,11.1409,255.8188,104.2543,0,U,56416,999,17127,.35315E-4,.71E-5,0
STARLINK-6261,2023-061AV,2026-06-13T20:35:45.389472,15.27571000,.00013339,43.0056,3.8103,270.9952,89.0747,0,U,56417,999,17158,-.28730262E-4,-.1052E-4,0
STARLINK-5356,2023-061AW,2026-06-13T19:43:27.179040,15.27579716,.00014254,43.0039,356.4935,280.7218,79.3473,0,U,56418,999,17166,-.2584417E-4,-.973E-5,0
STARLINK-5350,2023-061AX,2026-06-13T06:54:14.687136,15.27582705,.00016652,43.0068,7.2714,275.5822,84.4840,0,U,56419,999,17149,.37950343E-4,.782E-5,0
STARLINK-6272,2023-061AY,2026-06-13T19:54:33.638400,15.27581326,.00009699,43.0033,356.5532,265.0447,95.0294,0,U,56420,999,17166,.32343129E-4,.628E-5,0
STARLINK-6270,2023-061AZ,2026-06-13T20:17:52.275552,15.27601330,.00017527,43.0010,0.0870,270.8453,89.2198,0,U,56421,999,17162,.11639736E-3,.2944E-4,0
STARLINK-6236,2023-061BA,2026-06-13T20:09:21.973824,15.27573504,.00011901,43.0023,356.6295,264.5687,95.5029,0,U,56422,999,17166,-.10285647E-4,-.545E-5,0
STARLINK-6239,2023-061BB,2026-06-13T22:00:01.999584,15.27554226,.00015136,43.0008,356.1142,280.5609,178.0069,0,U,56423,999,581,.16575839E-2,.45598E-3,0
STARLINK-6242,2023-061BC,2026-06-13T06:13:03.495936,15.27580634,.0001569,43.0071,0.0155,284.7335,75.3343,0,U,56424,999,17157,.28439E-4,.52E-5,0
STARLINK-6224,2023-061BD,2026-06-13T06:07:30.765216,15.27579900,.0001918,43.0033,359.9845,267.3958,92.6674,0,U,56425,999,17157,.59585E-4,.1378E-4,0
STARLINK-5352,2023-061BE,2026-06-10T07:52:33.039552,15.26815129,.00024891,43.0054,16.7067,247.6564,112.4024,0,U,56426,999,17112,.36985695E-3,.9697E-4,0
STARLINK-5724,2023-061BF,2026-06-13T06:33:24.166368,15.27582005,.0001794,43.0048,0.1060,268.8246,91.2400,0,U,56427,999,17157,.56417E-4,.129E-4,0
STARLINK-6238,2023-061BG,2026-06-13T22:00:01.999584,15.27570318,.00019938,43.0010,356.3515,273.4847,85.9965,0,U,56428,999,570,.14714517E-2,.4044E-3,0
STARLINK-6264,2023-061BH,2026-06-13T22:05:43.970784,15.27574106,.0001696,43.0063,356.3720,273.3794,86.6864,0,U,56429,999,17167,-.6638558E-5,-.445E-5,0
STARLINK-5990,2023-064A,2026-06-13T16:27:59.469408,14.98330038,.0003403,69.9986,262.4819,269.5106,90.5663,0,U,56448,999,16962,.45902638E-4,.455E-5,0
STARLINK-5993,2023-064B,2026-06-13T16:57:51.129792,14.98303229,.00033086,69.9987,262.5540,265.0683,95.0099,0,U,56449,999,16962,-.245425E-3,-.3018E-4,0
STARLINK-5970,2023-064C,2026-06-13T16:21:58.723488,14.98331990,.0003366,69.9987,262.4673,270.3009,89.7765,0,U,56450,999,16962,.53436621E-4,.545E-5,0
STARLINK-5985,2023-064D,2026-06-13T16:51:47.999232,14.98334016,.00031651,69.9990,262.5390,270.2837,89.7959,0,U,56451,999,16962,-.82534664E-4,-.1078E-4,0
