STARLINK-6267           
1 56400U 23061AC  26164.86073520 -.00000209  00000+0  19306-5 0  9992
2 56400  43.0043   3.8403 0001174 266.4763  93.5954 15.27575625171588
STARLINK-6287           
1 56404U 23061AG  26164.29409647 -.00000186  00000+0  27619-5 0  9996
2 56404  43.0020   7.3166 0001265 260.0142 100.0567 15.27580236171492
STARLINK-6285           
1 56405U 23061AH  26164.27482410  .00000136  00000+0  14462-4 0  9999
2 56405  43.0064   7.1792 0001175 268.7702  91.3015 15.27578819171495
STARLINK-6283           
1 56406U 23061AJ  26164.83132880  .00000212  00000+0  17236-4 0  9992
2 56406  43.0028   4.4651 0001222 245.9292 114.1432 15.27577863171578
STARLINK-6282           
1 56407U 23061AK  26164.29024597  .00000391  00000+0  23735-4 0  9997
2 56407  43.0085   7.2957 0001324 280.1702  79.9000 15.27579863171494
STARLINK-6289           
1 56408U 23061AL  26164.84275006 -.00000687  00000+0 -15450-4 0  9997
2 56408  43.0043   3.6860 0001298 265.9488  94.1215 15.27571158171580
STARLINK-6241           
1 56409U 23061AM  26164.81976362  .00000480  00000+0  26986-4 0  9993
2 56409  43.0067   4.3877 0001723 277.6555  82.4101 15.27580002171572
STARLINK-6281           
1 56410U 23061AN  26164.83632487 -.00000481  00000+0 -79513-5 0  9992
2 56410  43.0037   3.6503 0001152 268.8303  91.2417 15.27573415171587
STARLINK-6279           
1 56411U 23061AP  26164.82361555  .00000229  00000+0  17877-4 0  9999
2 56411  43.0068   4.4129 0001946 273.0900  86.9729 15.27577167171571
STARLINK-6278           
1 56412U 23061AQ  26164.85045644 -.00001120  00000+0 -31199-4 0  9997
2 56412  43.0069   3.7566 0001192 257.8012 102.2706 15.27578355171585
STARLINK-6258           
1 56413U 23061AR  26164.83516939  .00001383  00000+0  59746-4 0  9993
2 56413  43.0053   4.4973 0001558 262.8920  97.1754 15.27588371171572
STARLINK-5136           
1 56414U 23061AS  26164.28382077 -.00000069  00000+0  70380-5 0  9996
2 56414  43.0062   7.2387 0001573 279.6407  80.4267 15.27575827171493
STARLINK-6260           
1 56416U 23061AU  26162.30389977  .00000710  00000+0  35315-4 0  9995
2 56416  43.0035  11.1409 0001089 255.8188 104.2543 15.27581791171273
STARLINK-6261           
1 56417U 23061AV  26164.85816423 -.00001052  00000+0 -28730-4 0  9994
2 56417  43.0056   3.8103 0001333 270.9952  89.0747 15.27571000171587
STARLINK-5356           
1 56418U 23061AW  26164.82184235 -.00000973  00000+0 -25844-4 0  9995
2 56418  43.0039 356.4935 0001425 280.7218  79.3473 15.27579716171664
STARLINK-5350           
1 56419U 23061AX  26164.28766999  .00000782  00000+0  37950-4 0  9996
2 56419  43.0068   7.2714 0001665 275.5822  84.4840 15.27582705171490
STARLINK-6272           
1 56420U 23061AY  26164.82955600  .00000628  00000+0  32343-4 0  9997
2 56420  43.0033 356.5532 0000969 265.0447  95.0294 15.27581326171663
STARLINK-6270           
1 56421U 23061AZ  26164.84574393  .00002944  00000+0  11640-3 0  9995
2 56421  43.0010   0.0870 0001752 270.8453  89.2198 15.27601330171629
STARLINK-6236           
1 56422U 23061BA  26164.83983766 -.00000545  00000+0 -10286-4 0  9996
2 56422  43.0023 356.6295 0001190 264.5687  95.5029 15.27573504171668
STARLINK-6239           
1 56423U 23061BB  26164.91668981  .00045598  00000+0  16576-2 0  9996
2 56423  43.0008 356.1142 0001513 280.5609 178.0069 15.27554226  5813
STARLINK-6242           
1 56424U 23061BC  26164.25906824  .00000520  00000+0  28439-4 0  9994
2 56424  43.0071   0.0155 0001569 284.7335  75.3343 15.27580634171579
STARLINK-6224           
1 56425U 23061BD  26164.25521719  .00001378  00000+0  59585-4 0  9999
2 56425  43.0033 359.9845 0001918 267.3958  92.6674 15.27579900171579
STARLINK-5352           
1 56426U 23061BE  26161.32816018  .00009697  00000+0  36986-3 0  9995
2 56426  43.0054  16.7067 0002489 247.6564 112.4024 15.26815129171121
STARLINK-5724           
1 56427U 23061BF  26164.27319637  .00001290  00000+0  56417-4 0  9991
2 56427  43.0048   0.1060 0001794 268.8246  91.2400 15.27582005171571
STARLINK-6238           
1 56428U 23061BG  26164.91668981  .00040440  00000+0  14715-2 0  9995
2 56428  43.0010 356.3515 0001993 273.4847  85.9965 15.27570318  5703
STARLINK-6264           
1 56429U 23061BH  26164.92064781 -.00000445  00000+0 -66386-5 0  9992
2 56429  43.0063 356.3720 0001696 273.3794  86.6864 15.27574106171675
STARLINK-5990           
1 56448U 23064A   26164.68610497  .00000455  00000+0  45903-4 0  9990
2 56448  69.9986 262.4819 0003403 269.5106  90.5663 14.98330038169629
STARLINK-5993           
1 56449U 23064B   26164.70684178 -.00003018  00000+0 -24543-3 0  9997
2 56449  69.9987 262.5540 0003308 265.0683  95.0099 14.98303229169623
STARLINK-5970           
1 56450U 23064C   26164.68192967  .00000545  00000+0  53437-4 0  9991
2 56450  69.9987 262.4673 0003366 270.3009  89.7765 14.98331990169622
STARLINK-5985           
1 56451U 23064D   26164.70263888 -.00001078  00000+0 -82535-4 0  9991
2 56451  69.9990 262.5390 0003165 270.2837  89.7959 14.98334016169626
